[{"OBJECT_NAME":"QIANFAN-20","OBJECT_ID":"2024-185B","EPOCH":"2026-03-09T23:23:01.518432","MEAN_MOTION":14.08938537,"ECCENTRICITY":0.00078766,"INCLINATION":88.976,"RA_OF_ASC_NODE":68.3354,"ARG_OF_PERICENTER":72.8404,"MEAN_ANOMALY":287.3642,"EPHEMERIS_TYPE":0,"CLASSIFICATION_TYPE":"U","NORAD_CAT_ID":61553,"ELEMENT_SET_NO":999,"REV_AT_EPOCH":8177,"BSTAR":0.00032795523,"MEAN_MOTION_DOT":5.81e-6,"MEAN_MOTION_DDOT":0},{"OBJECT_NAME":"CZ-6A DEB","OBJECT_ID":"2024-140CT","EPOCH":"2026-03-09T14:59:33.892512","MEAN_MOTION":14.14818793,"ECCENTRICITY":0.0066606,"INCLINATION":89.0109,"RA_OF_ASC_NODE":287.4811,"ARG_OF_PERICENTER":152.667,"MEAN_ANOMALY":207.8048,"EPHEMERIS_TYPE":0,"CLASSIFICATION_TYPE":"U","NORAD_CAT_ID":60690,"ELEMENT_SET_NO":999,"REV_AT_EPOCH":8162,"BSTAR":9.8247e-5,"MEAN_MOTION_DOT":2.08e-6,"MEAN_MOTION_DDOT":0}]
